STARLINK-36915          
1 68061U 26041X   26076.92726658  .00202212  00000+0  10016-2 0  9998
2 68061  53.1591  20.6723 0000937 122.4010 237.7104 15.80930829  2524
STARLINK-36952          
1 68062U 26041Y   26076.91670139  .00041695  00000+0  27494-3 0  9995
2 68062  53.1600  20.8286 0001047  84.6466 165.0711 15.75228691  3696
STARLINK-37000          
1 68063U 26041Z   26076.92576648  .00205485  00000+0  10171-2 0  9999
2 68063  53.1594  20.6624 0001210  71.2499 288.8655 15.80936761  2525
STARLINK-36996          
1 68064U 26041AA  26076.92501505  .00191266  00000+0  94861-3 0  9990
2 68064  53.1591  20.6570 0001381  46.8757 313.2381 15.80933843  2524
STARLINK-36836          
1 68065U 26041AB  26076.92351651  .00219230  00000+0  10830-2 0  9991
2 68065  53.1591  20.6474 0000873  89.1273 270.9850 15.80939271  2527
STARLINK-36976          
1 68066U 26041AC  26076.91670139  .00041454  00000+0  27336-3 0  9997
2 68066  53.1597  20.7258 0001185 111.9105 187.4499 15.75230903  3690
STARLINK-36929          
1 68067U 26041AD  26076.91670139  .00068125  00000+0  44538-3 0  9995
2 68067  53.1600  20.7746 0001024 108.5721 166.9023 15.75219320  3691
STARLINK-36990          
1 68068U 26041AE  26076.92201296  .00252263  00000+0  12437-2 0  9991
2 68068  53.1592  20.6361 0001064 134.5776 225.5334 15.80888946  2527
STARLINK-36766          
1 68069U 26042A   26076.91670139 -.00006852  00000+0 -31192-4 0  9992
2 68069  53.1591 153.5487 0001000  96.3339 274.8333 15.80880746  3361
STARLINK-36823          
1 68070U 26042B   26076.91670139 -.00088987  00000+0 -45099-3 0  9993
2 68070  53.1592 153.5395 0001034  90.1115 285.3250 15.80919318  3366
STARLINK-36970          
1 68071U 26042C   26076.91670139 -.00086900  00000+0 -44023-3 0  9993
2 68071  53.1591 153.5220 0000861  77.1004 306.8760 15.80919376  3372
STARLINK-36972          
1 68072U 26042D   26076.91670139 -.00076056  00000+0 -38462-3 0  9995
2 68072  53.1623 153.5312 0000859  99.7820 279.9197 15.80905604  3377
