CCSDS_OMM_VERS = 2.0
CREATION_DATE  = 
ORIGINATOR     = 

OBJECT_NAME    = STARLINK-36915
OBJECT_ID      = 2026-041X
CENTER_NAME    = EARTH
REF_FRAME      = TEME
TIME_SYSTEM    = UTC
MEAN_ELEMENT_THEORY = SGP/SGP4

EPOCH          = 2026-03-17T22:15:15.832512
MEAN_MOTION    = 15.80930829
ECCENTRICITY   = .00009372
INCLINATION    = 53.1591
RA_OF_ASC_NODE = 20.6723
ARG_OF_PERICENTER = 122.4010
MEAN_ANOMALY   = 237.7104

EPHEMERIS_TYPE = 0
CLASSIFICATION_TYPE = U
NORAD_CAT_ID   = 68061
ELEMENT_SET_NO = 999
REV_AT_EPOCH   = 252
BSTAR          = .10015629E-2
MEAN_MOTION_DOT = .202212E-2
MEAN_MOTION_DDOT = 0

CCSDS_OMM_VERS = 2.0
CREATION_DATE  = 
ORIGINATOR     = 

OBJECT_NAME    = STARLINK-36952
OBJECT_ID      = 2026-041Y
CENTER_NAME    = EARTH
REF_FRAME      = TEME
TIME_SYSTEM    = UTC
MEAN_ELEMENT_THEORY = SGP/SGP4

EPOCH          = 2026-03-17T22:00:03.000096
MEAN_MOTION    = 15.75228691
ECCENTRICITY   = .00010472
INCLINATION    = 53.1600
RA_OF_ASC_NODE = 20.8286
ARG_OF_PERICENTER = 84.6466
MEAN_ANOMALY   = 165.0711

EPHEMERIS_TYPE = 0
CLASSIFICATION_TYPE = U
NORAD_CAT_ID   = 68062
ELEMENT_SET_NO = 999
REV_AT_EPOCH   = 369
BSTAR          = .27494416E-3
MEAN_MOTION_DOT = .41695E-3
MEAN_MOTION_DDOT = 0

CCSDS_OMM_VERS = 2.0
CREATION_DATE  = 
ORIGINATOR     = 

OBJECT_NAME    = STARLINK-37000
OBJECT_ID      = 2026-041Z
CENTER_NAME    = EARTH
REF_FRAME      = TEME
TIME_SYSTEM    = UTC
MEAN_ELEMENT_THEORY = SGP/SGP4

EPOCH          = 2026-03-17T22:13:06.223872
MEAN_MOTION    = 15.80936761
ECCENTRICITY   = .00012101
INCLINATION    = 53.1594
RA_OF_ASC_NODE = 20.6624
ARG_OF_PERICENTER = 71.2499
MEAN_ANOMALY   = 288.8655

EPHEMERIS_TYPE = 0
CLASSIFICATION_TYPE = U
NORAD_CAT_ID   = 68063
ELEMENT_SET_NO = 999
REV_AT_EPOCH   = 252
BSTAR          = .10170543E-2
MEAN_MOTION_DOT = .205485E-2
MEAN_MOTION_DDOT = 0

CCSDS_OMM_VERS = 2.0
CREATION_DATE  = 
ORIGINATOR     = 

OBJECT_NAME    = STARLINK-36996
OBJECT_ID      = 2026-041AA
CENTER_NAME    = EARTH
REF_FRAME      = TEME
TIME_SYSTEM    = UTC
MEAN_ELEMENT_THEORY = SGP/SGP4

EPOCH          = 2026-03-17T22:12:01.300320
MEAN_MOTION    = 15.80933843
ECCENTRICITY   = .0001381
INCLINATION    = 53.1591
RA_OF_ASC_NODE = 20.6570
ARG_OF_PERICENTER = 46.8757
MEAN_ANOMALY   = 313.2381

EPHEMERIS_TYPE = 0
CLASSIFICATION_TYPE = U
NORAD_CAT_ID   = 68064
ELEMENT_SET_NO = 999
REV_AT_EPOCH   = 252
BSTAR          = .94861028E-3
MEAN_MOTION_DOT = .191266E-2
MEAN_MOTION_DDOT = 0

CCSDS_OMM_VERS = 2.0
CREATION_DATE  = 
ORIGINATOR     = 

OBJECT_NAME    = STARLINK-36836
OBJECT_ID      = 2026-041AB
CENTER_NAME    = EARTH
REF_FRAME      = TEME
TIME_SYSTEM    = UTC
MEAN_ELEMENT_THEORY = SGP/SGP4

EPOCH          = 2026-03-17T22:09:51.826464
MEAN_MOTION    = 15.80939271
ECCENTRICITY   = .00008732
INCLINATION    = 53.1591
RA_OF_ASC_NODE = 20.6474
ARG_OF_PERICENTER = 89.1273
MEAN_ANOMALY   = 270.9850

EPHEMERIS_TYPE = 0
CLASSIFICATION_TYPE = U
NORAD_CAT_ID   = 68065
ELEMENT_SET_NO = 999
REV_AT_EPOCH   = 252
BSTAR          = .10829838E-2
MEAN_MOTION_DOT = .21923E-2
MEAN_MOTION_DDOT = 0

CCSDS_OMM_VERS = 2.0
CREATION_DATE  = 
ORIGINATOR     = 

OBJECT_NAME    = STARLINK-36976
OBJECT_ID      = 2026-041AC
CENTER_NAME    = EARTH
REF_FRAME      = TEME
TIME_SYSTEM    = UTC
MEAN_ELEMENT_THEORY = SGP/SGP4

EPOCH          = 2026-03-17T22:00:03.000096
MEAN_MOTION    = 15.75230903
ECCENTRICITY   = .00011854
INCLINATION    = 53.1597
RA_OF_ASC_NODE = 20.7258
ARG_OF_PERICENTER = 111.9105
MEAN_ANOMALY   = 187.4499

EPHEMERIS_TYPE = 0
CLASSIFICATION_TYPE = U
NORAD_CAT_ID   = 68066
ELEMENT_SET_NO = 999
REV_AT_EPOCH   = 369
BSTAR          = .27335965E-3
MEAN_MOTION_DOT = .41454E-3
MEAN_MOTION_DDOT = 0

CCSDS_OMM_VERS = 2.0
CREATION_DATE  = 
ORIGINATOR     = 

OBJECT_NAME    = STARLINK-36929
OBJECT_ID      = 2026-041AD
CENTER_NAME    = EARTH
REF_FRAME      = TEME
TIME_SYSTEM    = UTC
MEAN_ELEMENT_THEORY = SGP/SGP4

EPOCH          = 2026-03-17T22:00:03.000096
MEAN_MOTION    = 15.75219320
ECCENTRICITY   = .00010242
INCLINATION    = 53.1600
RA_OF_ASC_NODE = 20.7746
ARG_OF_PERICENTER = 108.5721
MEAN_ANOMALY   = 166.9023

EPHEMERIS_TYPE = 0
CLASSIFICATION_TYPE = U
NORAD_CAT_ID   = 68067
ELEMENT_SET_NO = 999
REV_AT_EPOCH   = 369
BSTAR          = .44538486E-3
MEAN_MOTION_DOT = .68125E-3
MEAN_MOTION_DDOT = 0

CCSDS_OMM_VERS = 2.0
CREATION_DATE  = 
ORIGINATOR     = 

OBJECT_NAME    = STARLINK-36990
OBJECT_ID      = 2026-041AE
CENTER_NAME    = EARTH
REF_FRAME      = TEME
TIME_SYSTEM    = UTC
MEAN_ELEMENT_THEORY = SGP/SGP4

EPOCH          = 2026-03-17T22:07:41.919744
MEAN_MOTION    = 15.80888946
ECCENTRICITY   = .00010647
INCLINATION    = 53.1592
RA_OF_ASC_NODE = 20.6361
ARG_OF_PERICENTER = 134.5776
MEAN_ANOMALY   = 225.5334

EPHEMERIS_TYPE = 0
CLASSIFICATION_TYPE = U
NORAD_CAT_ID   = 68068
ELEMENT_SET_NO = 999
REV_AT_EPOCH   = 252
BSTAR          = .12437282E-2
MEAN_MOTION_DOT = .252263E-2
MEAN_MOTION_DDOT = 0

CCSDS_OMM_VERS = 2.0
CREATION_DATE  = 
ORIGINATOR     = 

OBJECT_NAME    = STARLINK-36766
OBJECT_ID      = 2026-042A
CENTER_NAME    = EARTH
REF_FRAME      = TEME
TIME_SYSTEM    = UTC
MEAN_ELEMENT_THEORY = SGP/SGP4

EPOCH          = 2026-03-17T22:00:03.000096
MEAN_MOTION    = 15.80880746
ECCENTRICITY   = .00010008
INCLINATION    = 53.1591
RA_OF_ASC_NODE = 153.5487
ARG_OF_PERICENTER = 96.3339
MEAN_ANOMALY   = 274.8333

EPHEMERIS_TYPE = 0
CLASSIFICATION_TYPE = U
NORAD_CAT_ID   = 68069
ELEMENT_SET_NO = 999
REV_AT_EPOCH   = 336
BSTAR          = -.3119218E-4
MEAN_MOTION_DOT = -.6852E-4
MEAN_MOTION_DDOT = 0

CCSDS_OMM_VERS = 2.0
CREATION_DATE  = 
ORIGINATOR     = 

OBJECT_NAME    = STARLINK-36823
OBJECT_ID      = 2026-042B
CENTER_NAME    = EARTH
REF_FRAME      = TEME
TIME_SYSTEM    = UTC
MEAN_ELEMENT_THEORY = SGP/SGP4

EPOCH          = 2026-03-17T22:00:03.000096
MEAN_MOTION    = 15.80919318
ECCENTRICITY   = .00010344
INCLINATION    = 53.1592
RA_OF_ASC_NODE = 153.5395
ARG_OF_PERICENTER = 90.1115
MEAN_ANOMALY   = 285.3250

EPHEMERIS_TYPE = 0
CLASSIFICATION_TYPE = U
NORAD_CAT_ID   = 68070
ELEMENT_SET_NO = 999
REV_AT_EPOCH   = 336
BSTAR          = -.45098946E-3
MEAN_MOTION_DOT = -.88987E-3
MEAN_MOTION_DDOT = 0

CCSDS_OMM_VERS = 2.0
CREATION_DATE  = 
ORIGINATOR     = 

OBJECT_NAME    = STARLINK-36970
OBJECT_ID      = 2026-042C
CENTER_NAME    = EARTH
REF_FRAME      = TEME
TIME_SYSTEM    = UTC
MEAN_ELEMENT_THEORY = SGP/SGP4

EPOCH          = 2026-03-17T22:00:03.000096
MEAN_MOTION    = 15.80919376
ECCENTRICITY   = .00008619
INCLINATION    = 53.1591
RA_OF_ASC_NODE = 153.5220
ARG_OF_PERICENTER = 77.1004
MEAN_ANOMALY   = 306.8760

EPHEMERIS_TYPE = 0
CLASSIFICATION_TYPE = U
NORAD_CAT_ID   = 68071
ELEMENT_SET_NO = 999
REV_AT_EPOCH   = 337
BSTAR          = -.44023398E-3
MEAN_MOTION_DOT = -.869E-3
MEAN_MOTION_DDOT = 0

CCSDS_OMM_VERS = 2.0
CREATION_DATE  = 
ORIGINATOR     = 

OBJECT_NAME    = STARLINK-36972
OBJECT_ID      = 2026-042D
CENTER_NAME    = EARTH
REF_FRAME      = TEME
TIME_SYSTEM    = UTC
MEAN_ELEMENT_THEORY = SGP/SGP4

EPOCH          = 2026-03-17T22:00:03.000096
MEAN_MOTION    = 15.80905604
ECCENTRICITY   = .00008591
INCLINATION    = 53.1623
RA_OF_ASC_NODE = 153.5312
ARG_OF_PERICENTER = 99.7820
MEAN_ANOMALY   = 279.9197

EPHEMERIS_TYPE = 0
CLASSIFICATION_TYPE = U
NORAD_CAT_ID   = 68072
ELEMENT_SET_NO = 999
REV_AT_EPOCH   = 337
BSTAR          = -.38461657E-3
MEAN_MOTION_DOT = -.76056E-3
MEAN_MOTION_DDOT = 0

